[{"OBJECT_NAME":"SL-8 R/B","OBJECT_ID":"1990-078B","EPOCH":"2026-03-02T23:45:21.473568","MEAN_MOTION":14.8879551,"ECCENTRICITY":0.0363882,"INCLINATION":82.899,"RA_OF_ASC_NODE":257.3366,"ARG_OF_PERICENTER":36.5052,"MEAN_ANOMALY":326.0384,"EPHEMERIS_TYPE":0,"CLASSIFICATION_TYPE":"U","NORAD_CAT_ID":20775,"ELEMENT_SET_NO":999,"REV_AT_EPOCH":80830,"BSTAR":0.00048171,"MEAN_MOTION_DOT":0.00016397,"MEAN_MOTION_DDOT":0},{"OBJECT_NAME":"SL-8 R/B","OBJECT_ID":"1991-006B","EPOCH":"2026-03-02T21:09:20.321280","MEAN_MOTION":13.7749326,"ECCENTRICITY":0.0023427,"INCLINATION":82.9463,"RA_OF_ASC_NODE":175.1067,"ARG_OF_PERICENTER":56.6915,"MEAN_ANOMALY":65.6886,"EPHEMERIS_TYPE":0,"CLASSIFICATION_TYPE":"U","NORAD_CAT_ID":21088,"ELEMENT_SET_NO":999,"REV_AT_EPOCH":76313,"BSTAR":3.093e-5,"MEAN_MOTION_DOT":4.6e-7,"MEAN_MOTION_DDOT":0},{"OBJECT_NAME":"OKEAN-3","OBJECT_ID":"1991-039A","EPOCH":"2026-03-03T03:53:45.226464","MEAN_MOTION":15.04747394,"ECCENTRICITY":0.0014339,"INCLINATION":82.5201,"RA_OF_ASC_NODE":343.1655,"ARG_OF_PERICENTER":1.7263,"MEAN_ANOMALY":358.401,"EPHEMERIS_TYPE":0,"CLASSIFICATION_TYPE":"U","NORAD_CAT_ID":21397,"ELEMENT_SET_NO":999,"REV_AT_EPOCH":86405,"BSTAR":0.00026175,"MEAN_MOTION_DOT":3.723e-5,"MEAN_MOTION_DDOT":0},{"OBJECT_NAME":"COSMOS 2151","OBJECT_ID":"1991-042A","EPOCH":"2026-03-03T03:30:41.557248","MEAN_MOTION":15.00073567,"ECCENTRICITY":0.0014139,"INCLINATION":82.493,"RA_OF_ASC_NODE":89.9898,"ARG_OF_PERICENTER":83.1105,"MEAN_ANOMALY":277.1727,"EPHEMERIS_TYPE":0,"CLASSIFICATION_TYPE":"U","NORAD_CAT_ID":21422,"ELEMENT_SET_NO":999,"REV_AT_EPOCH":86221,"BSTAR":0.00016997,"MEAN_MOTION_DOT":2.148e-5,"MEAN_MOTION_DDOT":0},{"OBJECT_NAME":"SL-14 R/B","OBJECT_ID":"1991-042B","EPOCH":"2026-03-03T00:07:24.438144","MEAN_MOTION":14.81821155,"ECCENTRICITY":0.00156,"INCLINATION":82.491,"RA_OF_ASC_NODE":226.4509,"ARG_OF_PERICENTER":262.5444,"MEAN_ANOMALY":97.3997,"EPHEMERIS_TYPE":0,"CLASSIFICATION_TYPE":"U","NORAD_CAT_ID":21423,"ELEMENT_SET_NO":999,"REV_AT_EPOCH":85208,"BSTAR":7.1055e-5,"MEAN_MOTION_DOT":5.85e-6,"MEAN_MOTION_DDOT":0},{"OBJECT_NAME":"ERS-1","OBJECT_ID":"1991-050A","EPOCH":"2026-03-03T00:34:56.135712","MEAN_MOTION":14.39443076,"ECCENTRICITY":0.0031273,"INCLINATION":98.7885,"RA_OF_ASC_NODE":80.0912,"ARG_OF_PERICENTER":220.5217,"MEAN_ANOMALY":139.3642,"EPHEMERIS_TYPE":0,"CLASSIFICATION_TYPE":"U","NORAD_CAT_ID":21574,"ELEMENT_SET_NO":999,"REV_AT_EPOCH":81477,"BSTAR":0.00013389,"MEAN_MOTION_DOT":3.73e-6,"MEAN_MOTION_DDOT":0},{"OBJECT_NAME":"ARIANE 40 R/B","OBJECT_ID":"1991-050F","EPOCH":"2026-03-03T03:50:59.869824","MEAN_MOTION":14.42887827,"ECCENTRICITY":0.0004357,"INCLINATION":98.2026,"RA_OF_ASC_NODE":114.6416,"ARG_OF_PERICENTER":95.39,"MEAN_ANOMALY":264.7788,"EPHEMERIS_TYPE":0,"CLASSIFICATION_TYPE":"U","NORAD_CAT_ID":21610,"ELEMENT_SET_NO":999,"REV_AT_EPOCH":81805,"BSTAR":0.00011721,"MEAN_MOTION_DOT":3.5e-6,"MEAN_MOTION_DDOT":0},{"OBJECT_NAME":"INTERCOSMOS 25","OBJECT_ID":"1991-086A","EPOCH":"2026-03-03T03:15:35.048448","MEAN_MOTION":12.11978116,"ECCENTRICITY":0.1487061,"INCLINATION":82.6064,"RA_OF_ASC_NODE":313.969,"ARG_OF_PERICENTER":131.0519,"MEAN_ANOMALY":242.9013,"EPHEMERIS_TYPE":0,"CLASSIFICATION_TYPE":"U","NORAD_CAT_ID":21819,"ELEMENT_SET_NO":999,"REV_AT_EPOCH":49589,"BSTAR":0.00029578,"MEAN_MOTION_DOT":1.543e-5,"MEAN_MOTION_DDOT":0},{"OBJECT_NAME":"SL-8 R/B","OBJECT_ID":"1992-008B","EPOCH":"2026-03-03T02:46:33.000672","MEAN_MOTION":13.75969816,"ECCENTRICITY":0.0035217,"INCLINATION":82.9227,"RA_OF_ASC_NODE":272.6698,"ARG_OF_PERICENTER":151.254,"MEAN_ANOMALY":324.8285,"EPHEMERIS_TYPE":0,"CLASSIFICATION_TYPE":"U","NORAD_CAT_ID":21876,"ELEMENT_SET_NO":999,"REV_AT_EPOCH":70851,"BSTAR":-1.0117e-5,"MEAN_MOTION_DOT":6.0e-8,"MEAN_MOTION_DDOT":0},{"OBJECT_NAME":"SL-8 R/B","OBJECT_ID":"1992-020B","EPOCH":"2026-03-03T05:01:47.583264","MEAN_MOTION":13.75548569,"ECCENTRICITY":0.0027922,"INCLINATION":82.934,"RA_OF_ASC_NODE":158.5714,"ARG_OF_PERICENTER":317.6468,"MEAN_ANOMALY":59.6723,"EPHEMERIS_TYPE":0,"CLASSIFICATION_TYPE":"U","NORAD_CAT_ID":21938,"ELEMENT_SET_NO":999,"REV_AT_EPOCH":70024,"BSTAR":7.1201e-5,"MEAN_MOTION_DOT":8.4e-7,"MEAN_MOTION_DDOT":0},{"OBJECT_NAME":"USA 81","OBJECT_ID":"1992-023A","EPOCH":"2026-03-03T03:53:19.582944","MEAN_MOTION":14.32365305,"ECCENTRICITY":0.0002601,"INCLINATION":85.0098,"RA_OF_ASC_NODE":135.2067,"ARG_OF_PERICENTER":82.6295,"MEAN_ANOMALY":277.5193,"EPHEMERIS_TYPE":0,"CLASSIFICATION_TYPE":"U","NORAD_CAT_ID":21949,"ELEMENT_SET_NO":999,"REV_AT_EPOCH":9385,"BSTAR":7.0326e-5,"MEAN_MOTION_DOT":2.1e-6,"MEAN_MOTION_DDOT":0},{"OBJECT_NAME":"COSMOS 2219","OBJECT_ID":"1992-076A","EPOCH":"2026-03-03T03:42:35.039808","MEAN_MOTION":14.14088793,"ECCENTRICITY":0.0019345,"INCLINATION":71.0618,"RA_OF_ASC_NODE":31.7282,"ARG_OF_PERICENTER":215.784,"MEAN_ANOMALY":144.1988,"EPHEMERIS_TYPE":0,"CLASSIFICATION_TYPE":"U","NORAD_CAT_ID":22219,"ELEMENT_SET_NO":999,"REV_AT_EPOCH":71745,"BSTAR":0.00017951,"MEAN_MOTION_DOT":2.95e-6,"MEAN_MOTION_DDOT":0},{"OBJECT_NAME":"SL-16 R/B","OBJECT_ID":"1992-076B","EPOCH":"2026-03-02T20:36:02.769696","MEAN_MOTION":14.16859712,"ECCENTRICITY":0.0010647,"INCLINATION":70.9997,"RA_OF_ASC_NODE":202.7622,"ARG_OF_PERICENTER":108.9627,"MEAN_ANOMALY":2.9705,"EPHEMERIS_TYPE":0,"CLASSIFICATION_TYPE":"U","NORAD_CAT_ID":22220,"ELEMENT_SET_NO":999,"REV_AT_EPOCH":72086,"BSTAR":7.1182e-5,"MEAN_MOTION_DOT":9.5e-7,"MEAN_MOTION_DDOT":0},{"OBJECT_NAME":"COSMOS 2221","OBJECT_ID":"1992-080A","EPOCH":"2026-03-03T01:59:55.017024","MEAN_MOTION":14.96170383,"ECCENTRICITY":0.0013466,"INCLINATION":82.5019,"RA_OF_ASC_NODE":285.4101,"ARG_OF_PERICENTER":210.3026,"MEAN_ANOMALY":149.7419,"EPHEMERIS_TYPE":0,"CLASSIFICATION_TYPE":"U","NORAD_CAT_ID":22236,"ELEMENT_SET_NO":999,"REV_AT_EPOCH":77980,"BSTAR":0.00017727,"MEAN_MOTION_DOT":2.025e-5,"MEAN_MOTION_DDOT":0},{"OBJECT_NAME":"SL-16 R/B","OBJECT_ID":"1992-093B","EPOCH":"2026-03-03T04:00:44.285472","MEAN_MOTION":14.15449558,"ECCENTRICITY":0.0006277,"INCLINATION":71.0238,"RA_OF_ASC_NODE":17.957,"ARG_OF_PERICENTER":300.6827,"MEAN_ANOMALY":59.3677,"EPHEMERIS_TYPE":0,"CLASSIFICATION_TYPE":"U","NORAD_CAT_ID":22285,"ELEMENT_SET_NO":999,"REV_AT_EPOCH":71223,"BSTAR":-4.4478e-5,"MEAN_MOTION_DOT":-1.34e-6,"MEAN_MOTION_DDOT":0},{"OBJECT_NAME":"COSMOS 2228","OBJECT_ID":"1992-094A","EPOCH":"2026-03-03T02:29:45.773664","MEAN_MOTION":14.97149568,"ECCENTRICITY":0.0017216,"INCLINATION":82.5145,"RA_OF_ASC_NODE":243.6173,"ARG_OF_PERICENTER":328.1763,"MEAN_ANOMALY":31.8417,"EPHEMERIS_TYPE":0,"CLASSIFICATION_TYPE":"U","NORAD_CAT_ID":22286,"ELEMENT_SET_NO":999,"REV_AT_EPOCH":77507,"BSTAR":0.00024305,"MEAN_MOTION_DOT":2.84e-5,"MEAN_MOTION_DDOT":0},{"OBJECT_NAME":"SL-16 R/B","OBJECT_ID":"1993-016B","EPOCH":"2026-03-02T20:29:08.813472","MEAN_MOTION":14.15304662,"ECCENTRICITY":0.001131,"INCLINATION":71.0056,"RA_OF_ASC_NODE":229.5391,"ARG_OF_PERICENTER":323.686,"MEAN_ANOMALY":36.3494,"EPHEMERIS_TYPE":0,"CLASSIFICATION_TYPE":"U","NORAD_CAT_ID":22566,"ELEMENT_SET_NO":999,"REV_AT_EPOCH":70120,"BSTAR":0.00019677,"MEAN_MOTION_DOT":3.36e-6,"MEAN_MOTION_DDOT":0}]
